{"fetched_at":"2026-07-21T17:53:29.980Z","source":"https://celestrak.org/NORAD/elements/gp.php?NAME=HAWK&FORMAT=JSON","constellation":"hawkeye-360","records":[{"OBJECT_NAME":"HAWK-A","OBJECT_ID":"2018-099H","EPOCH":"2026-07-21T03:27:15.361056","CLASSIFICATION_TYPE":"U","MEAN_MOTION":15.25013659,"ECCENTRICITY":0.00353611,"INCLINATION":97.3891,"RA_OF_ASC_NODE":253.9415,"ARG_OF_PERICENTER":163.2488,"MEAN_ANOMALY":196.9927,"EPHEMERIS_TYPE":0,"NORAD_CAT_ID":43765,"ELEMENT_SET_NO":999,"REV_AT_EPOCH":41827,"BSTAR":0.00021316699,"MEAN_MOTION_DOT":0.00005342,"MEAN_MOTION_DDOT":0},{"OBJECT_NAME":"HAWK-B","OBJECT_ID":"2018-099AN","EPOCH":"2026-07-21T03:22:30.095904","CLASSIFICATION_TYPE":"U","MEAN_MOTION":15.23157528,"ECCENTRICITY":0.00319888,"INCLINATION":97.3941,"RA_OF_ASC_NODE":253.2814,"ARG_OF_PERICENTER":181.0961,"MEAN_ANOMALY":179.0211,"EPHEMERIS_TYPE":0,"NORAD_CAT_ID":43794,"ELEMENT_SET_NO":999,"REV_AT_EPOCH":41820,"BSTAR":0.00019520111,"MEAN_MOTION_DOT":0.00004604,"MEAN_MOTION_DDOT":0},{"OBJECT_NAME":"HAWK-C","OBJECT_ID":"2018-099AT","EPOCH":"2026-07-21T02:35:55.386816","CLASSIFICATION_TYPE":"U","MEAN_MOTION":15.2854991,"ECCENTRICITY":0.00409,"INCLINATION":97.3868,"RA_OF_ASC_NODE":254.9875,"ARG_OF_PERICENTER":163.0535,"MEAN_ANOMALY":197.2082,"EPHEMERIS_TYPE":0,"NORAD_CAT_ID":43799,"ELEMENT_SET_NO":999,"REV_AT_EPOCH":41909,"BSTAR":0.00022637996,"MEAN_MOTION_DOT":0.00006369,"MEAN_MOTION_DDOT":0},{"OBJECT_NAME":"HAWK-2C","OBJECT_ID":"2021-006CT","EPOCH":"2026-07-21T02:51:01.172448","CLASSIFICATION_TYPE":"U","MEAN_MOTION":15.35034767,"ECCENTRICITY":0.00086462,"INCLINATION":97.226,"RA_OF_ASC_NODE":245.7566,"ARG_OF_PERICENTER":84.1516,"MEAN_ANOMALY":276.0713,"EPHEMERIS_TYPE":0,"NORAD_CAT_ID":47502,"ELEMENT_SET_NO":999,"REV_AT_EPOCH":30470,"BSTAR":0.00014320472,"MEAN_MOTION_DOT":0.00004794,"MEAN_MOTION_DDOT":0},{"OBJECT_NAME":"HAWK-2A","OBJECT_ID":"2021-006CW","EPOCH":"2026-07-21T01:20:14.084448","CLASSIFICATION_TYPE":"U","MEAN_MOTION":15.35056059,"ECCENTRICITY":0.00082144,"INCLINATION":97.2301,"RA_OF_ASC_NODE":246.3922,"ARG_OF_PERICENTER":87.9319,"MEAN_ANOMALY":272.2865,"EPHEMERIS_TYPE":0,"NORAD_CAT_ID":47505,"ELEMENT_SET_NO":999,"REV_AT_EPOCH":30469,"BSTAR":0.00014782513,"MEAN_MOTION_DOT":0.00004954,"MEAN_MOTION_DDOT":0},{"OBJECT_NAME":"HAWK-2B","OBJECT_ID":"2021-006CZ","EPOCH":"2026-07-21T02:44:03.704064","CLASSIFICATION_TYPE":"U","MEAN_MOTION":15.35188101,"ECCENTRICITY":0.00087409,"INCLINATION":97.2174,"RA_OF_ASC_NODE":244.7281,"ARG_OF_PERICENTER":86.0266,"MEAN_ANOMALY":274.1977,"EPHEMERIS_TYPE":0,"NORAD_CAT_ID":47508,"ELEMENT_SET_NO":999,"REV_AT_EPOCH":30470,"BSTAR":0.00015911397,"MEAN_MOTION_DOT":0.00005362,"MEAN_MOTION_DDOT":0},{"OBJECT_NAME":"HAWK-3B","OBJECT_ID":"2021-059BE","EPOCH":"2026-07-21T02:00:29.862144","CLASSIFICATION_TYPE":"U","MEAN_MOTION":15.7223305,"ECCENTRICITY":0.00049501,"INCLINATION":97.6636,"RA_OF_ASC_NODE":42.0684,"ARG_OF_PERICENTER":177.9803,"MEAN_ANOMALY":182.1481,"EPHEMERIS_TYPE":0,"NORAD_CAT_ID":48931,"ELEMENT_SET_NO":999,"REV_AT_EPOCH":28317,"BSTAR":0.00028735466,"MEAN_MOTION_DOT":0.0003784,"MEAN_MOTION_DDOT":0},{"OBJECT_NAME":"HAWK-3C","OBJECT_ID":"2021-059BX","EPOCH":"2026-07-21T03:31:41.398752","CLASSIFICATION_TYPE":"U","MEAN_MOTION":15.72236935,"ECCENTRICITY":0.00052584,"INCLINATION":97.675,"RA_OF_ASC_NODE":47.8813,"ARG_OF_PERICENTER":177.8782,"MEAN_ANOMALY":182.2503,"EPHEMERIS_TYPE":0,"NORAD_CAT_ID":48948,"ELEMENT_SET_NO":999,"REV_AT_EPOCH":28318,"BSTAR":0.0002668709,"MEAN_MOTION_DOT":0.00035131,"MEAN_MOTION_DDOT":0},{"OBJECT_NAME":"HAWK-3A","OBJECT_ID":"2021-059CG","EPOCH":"2026-07-21T01:59:52.742976","CLASSIFICATION_TYPE":"U","MEAN_MOTION":15.72234327,"ECCENTRICITY":0.00050987,"INCLINATION":97.6699,"RA_OF_ASC_NODE":44.9888,"ARG_OF_PERICENTER":180.1984,"MEAN_ANOMALY":179.9277,"EPHEMERIS_TYPE":0,"NORAD_CAT_ID":48957,"ELEMENT_SET_NO":999,"REV_AT_EPOCH":28317,"BSTAR":0.00028163758,"MEAN_MOTION_DOT":0.00037085,"MEAN_MOTION_DDOT":0},{"OBJECT_NAME":"HAWK-5C","OBJECT_ID":"2022-057Y","EPOCH":"2026-07-20T23:00:39.735072","CLASSIFICATION_TYPE":"U","MEAN_MOTION":15.52456657,"ECCENTRICITY":0.00023878,"INCLINATION":97.6629,"RA_OF_ASC_NODE":3.8388,"ARG_OF_PERICENTER":317.5371,"MEAN_ANOMALY":42.5696,"EPHEMERIS_TYPE":0,"NORAD_CAT_ID":52754,"ELEMENT_SET_NO":999,"REV_AT_EPOCH":23158,"BSTAR":0.00022402218,"MEAN_MOTION_DOT":0.000136,"MEAN_MOTION_DDOT":0},{"OBJECT_NAME":"HAWK-5B","OBJECT_ID":"2022-057AA","EPOCH":"2026-07-20T23:00:25.027200","CLASSIFICATION_TYPE":"U","MEAN_MOTION":15.52452064,"ECCENTRICITY":0.00030518,"INCLINATION":97.664,"RA_OF_ASC_NODE":2.1933,"ARG_OF_PERICENTER":303.0928,"MEAN_ANOMALY":57.0031,"EPHEMERIS_TYPE":0,"NORAD_CAT_ID":52756,"ELEMENT_SET_NO":999,"REV_AT_EPOCH":23158,"BSTAR":0.00021929985,"MEAN_MOTION_DOT":0.00013309,"MEAN_MOTION_DDOT":0},{"OBJECT_NAME":"HAWK-5A","OBJECT_ID":"2022-057AB","EPOCH":"2026-07-20T23:00:07.252128","CLASSIFICATION_TYPE":"U","MEAN_MOTION":15.52455151,"ECCENTRICITY":0.00029429,"INCLINATION":97.6637,"RA_OF_ASC_NODE":3.0231,"ARG_OF_PERICENTER":309.83,"MEAN_ANOMALY":50.2692,"EPHEMERIS_TYPE":0,"NORAD_CAT_ID":52757,"ELEMENT_SET_NO":999,"REV_AT_EPOCH":23158,"BSTAR":0.00022046684,"MEAN_MOTION_DOT":0.00013382,"MEAN_MOTION_DDOT":0},{"OBJECT_NAME":"HAWK-6B","OBJECT_ID":"2023-011A","EPOCH":"2026-07-21T05:08:06.451584","CLASSIFICATION_TYPE":"U","MEAN_MOTION":15.23188223,"ECCENTRICITY":0.00045838,"INCLINATION":40.4981,"RA_OF_ASC_NODE":153.5607,"ARG_OF_PERICENTER":270.8827,"MEAN_ANOMALY":89.1457,"EPHEMERIS_TYPE":0,"NORAD_CAT_ID":55324,"ELEMENT_SET_NO":999,"REV_AT_EPOCH":19303,"BSTAR":0.00014358561,"MEAN_MOTION_DOT":0.00003272,"MEAN_MOTION_DDOT":0},{"OBJECT_NAME":"HAWK-6C","OBJECT_ID":"2023-011C","EPOCH":"2026-07-21T06:41:36.605760","CLASSIFICATION_TYPE":"U","MEAN_MOTION":15.23188167,"ECCENTRICITY":0.0005074,"INCLINATION":40.497,"RA_OF_ASC_NODE":150.017,"ARG_OF_PERICENTER":266.0361,"MEAN_ANOMALY":93.9869,"EPHEMERIS_TYPE":0,"NORAD_CAT_ID":55326,"ELEMENT_SET_NO":999,"REV_AT_EPOCH":19305,"BSTAR":0.0001407412,"MEAN_MOTION_DOT":0.00003204,"MEAN_MOTION_DDOT":0},{"OBJECT_NAME":"HAWK-6A","OBJECT_ID":"2023-011D","EPOCH":"2026-07-21T05:07:15.007296","CLASSIFICATION_TYPE":"U","MEAN_MOTION":15.23188189,"ECCENTRICITY":0.0004771,"INCLINATION":40.4979,"RA_OF_ASC_NODE":152.0272,"ARG_OF_PERICENTER":262.716,"MEAN_ANOMALY":97.3107,"EPHEMERIS_TYPE":0,"NORAD_CAT_ID":55327,"ELEMENT_SET_NO":999,"REV_AT_EPOCH":19304,"BSTAR":0.00014221103,"MEAN_MOTION_DOT":0.00003239,"MEAN_MOTION_DDOT":0},{"OBJECT_NAME":"HAWK-7A","OBJECT_ID":"2023-054P","EPOCH":"2026-07-21T02:36:37.095552","CLASSIFICATION_TYPE":"U","MEAN_MOTION":15.276712,"ECCENTRICITY":0.00009888,"INCLINATION":97.2652,"RA_OF_ASC_NODE":88.5833,"ARG_OF_PERICENTER":289.7261,"MEAN_ANOMALY":70.3872,"EPHEMERIS_TYPE":0,"NORAD_CAT_ID":56191,"ELEMENT_SET_NO":999,"REV_AT_EPOCH":18220,"BSTAR":0.0001485272,"MEAN_MOTION_DOT":0.00003944,"MEAN_MOTION_DDOT":0}]}
